{"type": "FeatureCollection", "features": [ {"type": "Feature", "properties": {"norad_id": 33153, "name": "INTELSAT 25 (IS-25)", "group": "intelsat", "lat": -1.8899323809214361, "lon": 25.674224082572135, "alt_km": 35794.55745745768, "timestamp": "2025-12-26T21:25:52.673881+00:00", "meta": {"OBJECT_NAME": "INTELSAT 25 (IS-25)", "OBJECT_ID": "2008-034A", "EPOCH": "2025-12-26T11:10:18.842304", "MEAN_MOTION": 1.00271391, "ECCENTRICITY": 0.00049958, "INCLINATION": 2.2611, "RA_OF_ASC_NODE": 82.4991, "ARG_OF_PERICENTER": 190.6323, "MEAN_ANOMALY": 318.163, "EPHEMERIS_TYPE": 0, "CLASSIFICATION_TYPE": "U", "NORAD_CAT_ID": 33153, "ELEMENT_SET_NO": 999, "REV_AT_EPOCH": 6396, "BSTAR": 0, "MEAN_MOTION_DOT": -2.03e-06, "MEAN_MOTION_DDOT": 0}, "tle": {"line1": "1 33153U 08034A   25360.46549586 -.00000203  00000+0  00000+0 0  9997", "line2": "2 33153   2.2611  82.4991 0004995 190.6323 318.1630  1.00271391 63963"}}, "geometry": {"type": "Point", "coordinates": [25.674224082572135, -1.8899323809214361]}}, {"type": "Feature", "properties": {"norad_id": 33376, "name": "GALAXY 19 (G-19)", "group": "intelsat", "lat": 0.01227481207902199, "lon": -39.88842823017532, "alt_km": 35776.665752009496, "timestamp": "2025-12-26T21:25:52.673893+00:00", "meta": {"OBJECT_NAME": "GALAXY 19 (G-19)", "OBJECT_ID": "2008-045A", "EPOCH": "2025-12-26T11:24:38.058336", "MEAN_MOTION": 1.00271648, "ECCENTRICITY": 0.00028136, "INCLINATION": 0.0383, "RA_OF_ASC_NODE": 264.7732, "ARG_OF_PERICENTER": 18.0555, "MEAN_ANOMALY": 246.5483, "EPHEMERIS_TYPE": 0, "CLASSIFICATION_TYPE": "U", "NORAD_CAT_ID": 33376, "ELEMENT_SET_NO": 999, "REV_AT_EPOCH": 6317, "BSTAR": 0, "MEAN_MOTION_DOT": -1.17e-06, "MEAN_MOTION_DDOT": 0}, "tle": {"line1": "1 33376U 08045A   25360.47544049 -.00000117  00000+0  00000+0 0  9990", "line2": "2 33376   0.0383 264.7732 0002813  18.0555 246.5483  1.00271648 63175"}}, "geometry": {"type": "Point", "coordinates": [-39.88842823017532, 0.01227481207902199]}}, {"type": "Feature", "properties": {"norad_id": 35493, "name": "FM-5", "group": "intelsat", "lat": -0.0013637091171589749, "lon": -29.06538682034618, "alt_km": 35790.06050280578, "timestamp": "2025-12-26T21:25:52.673905+00:00", "meta": {"OBJECT_NAME": "FM-5", "OBJECT_ID": "2009-034A", "EPOCH": "2025-12-25T21:13:02.840160", "MEAN_MOTION": 1.00269478, "ECCENTRICITY": 7.9e-05, "INCLINATION": 0.0148, "RA_OF_ASC_NODE": 303.8545, "ARG_OF_PERICENTER": 217.7513, "MEAN_ANOMALY": 165.1409, "EPHEMERIS_TYPE": 0, "CLASSIFICATION_TYPE": "U", "NORAD_CAT_ID": 35493, "ELEMENT_SET_NO": 999, "REV_AT_EPOCH": 4490, "BSTAR": 0, "MEAN_MOTION_DOT": -1.78e-06, "MEAN_MOTION_DDOT": 0}, "tle": {"line1": "1 35493U 09034A   25359.88406065 -.00000178  00000+0  00000+0 0  9996", "line2": "2 35493   0.0148 303.8545 0000790 217.7513 165.1409  1.00269478 44909"}}, "geometry": {"type": "Point", "coordinates": [-29.06538682034618, -0.0013637091171589749]}}, {"type": "Feature", "properties": {"norad_id": 36097, "name": "INTELSAT 14 (IS-14)", "group": "intelsat", "lat": -0.008077780422950738, "lon": 12.124411711349813, "alt_km": 35786.09233302253, "timestamp": "2025-12-26T21:25:52.673917+00:00", "meta": {"OBJECT_NAME": "INTELSAT 14 (IS-14)", "OBJECT_ID": "2009-064A", "EPOCH": "2025-12-26T11:06:19.224000", "MEAN_MOTION": 1.00271706, "ECCENTRICITY": 0.00026446, "INCLINATION": 0.0128, "RA_OF_ASC_NODE": 39.804, "ARG_OF_PERICENTER": 242.6643, "MEAN_ANOMALY": 294.3197, "EPHEMERIS_TYPE": 0, "CLASSIFICATION_TYPE": "U", "NORAD_CAT_ID": 36097, "ELEMENT_SET_NO": 999, "REV_AT_EPOCH": 5887, "BSTAR": 0, "MEAN_MOTION_DOT": -2.51e-06, "MEAN_MOTION_DDOT": 0}, "tle": {"line1": "1 36097U 09064A   25360.46272250 -.00000251  00000+0  00000+0 0  9995", "line2": "2 36097   0.0128  39.8040 0002644 242.6643 294.3197  1.00271706 58872"}}, "geometry": {"type": "Point", "coordinates": [12.124411711349813, -0.008077780422950738]}}, {"type": "Feature", "properties": {"norad_id": 36106, "name": "INTELSAT 15 (IS-15)", "group": "intelsat", "lat": 0.029521691290178894, "lon": 142.2260426766504, "alt_km": 35794.99822043568, "timestamp": "2025-12-26T21:25:52.673929+00:00", "meta": {"OBJECT_NAME": "INTELSAT 15 (IS-15)", "OBJECT_ID": "2009-067A", "EPOCH": "2025-12-26T03:37:38.694720", "MEAN_MOTION": 1.00270174, "ECCENTRICITY": 0.00024301, "INCLINATION": 0.0154, "RA_OF_ASC_NODE": 51.9638, "ARG_OF_PERICENTER": 235.3713, "MEAN_ANOMALY": 307.1291, "EPHEMERIS_TYPE": 0, "CLASSIFICATION_TYPE": "U", "NORAD_CAT_ID": 36106, "ELEMENT_SET_NO": 999, "REV_AT_EPOCH": 3949, "BSTAR": 0, "MEAN_MOTION_DOT": -1.63e-06, "MEAN_MOTION_DDOT": 0}, "tle": {"line1": "1 36106U 09067A   25360.15114230 -.00000163  00000+0  00000+0 0  9990", "line2": "2 36106   0.0154  51.9638 0002430 235.3713 307.1291  1.00270174 39493"}}, "geometry": {"type": "Point", "coordinates": [142.2260426766504, 0.029521691290178894]}}, {"type": "Feature", "properties": {"norad_id": 36131, "name": "DIRECTV 12", "group": "intelsat", "lat": -0.013488118988739691, "lon": -45.60881607267702, "alt_km": 35783.412429836746, "timestamp": "2025-12-26T21:25:52.673941+00:00", "meta": {"OBJECT_NAME": "DIRECTV 12", "OBJECT_ID": "2009-075A", "EPOCH": "2025-12-25T14:17:27.635136", "MEAN_MOTION": 1.00273448, "ECCENTRICITY": 5.26e-05, "INCLINATION": 0.0362, "RA_OF_ASC_NODE": 165.2057, "ARG_OF_PERICENTER": 147.3669, "MEAN_ANOMALY": 253.4343, "EPHEMERIS_TYPE": 0, "CLASSIFICATION_TYPE": "U", "NORAD_CAT_ID": 36131, "ELEMENT_SET_NO": 999, "REV_AT_EPOCH": 4481, "BSTAR": 0, "MEAN_MOTION_DOT": -8.2e-07, "MEAN_MOTION_DDOT": 0}, "tle": {"line1": "1 36131U 09075A   25359.59545874 -.00000082  00000+0  00000+0 0  9995", "line2": "2 36131   0.0362 165.2057 0000526 147.3669 253.4343  1.00273448 44812"}}, "geometry": {"type": "Point", "coordinates": [-45.60881607267702, -0.013488118988739691]}}, {"type": "Feature", "properties": {"norad_id": 36397, "name": "INTELSAT 16 (IS-16)", "group": "intelsat", "lat": -0.013322744320213723, "lon": -19.067265106539036, "alt_km": 35782.93537715768, "timestamp": "2025-12-26T21:25:52.673953+00:00", "meta": {"OBJECT_NAME": "INTELSAT 16 (IS-16)", "OBJECT_ID": "2010-006A", "EPOCH": "2025-12-26T12:40:10.236864", "MEAN_MOTION": 1.00271686, "ECCENTRICITY": 0.00020264, "INCLINATION": 0.0098, "RA_OF_ASC_NODE": 8.0351, "ARG_OF_PERICENTER": 264.8493, "MEAN_ANOMALY": 296.2475, "EPHEMERIS_TYPE": 0, "CLASSIFICATION_TYPE": "U", "NORAD_CAT_ID": 36397, "ELEMENT_SET_NO": 999, "REV_AT_EPOCH": 5792, "BSTAR": 0, "MEAN_MOTION_DOT": -2.23e-06, "MEAN_MOTION_DDOT": 0}, "tle": {"line1": "1 36397U 10006A   25360.52789626 -.00000223  00000+0  00000+0 0  9992", "line2": "2 36397   0.0098   8.0351 0002026 264.8493 296.2475  1.00271686 57929"}}, "geometry": {"type": "Point", "coordinates": [-19.067265106539036, -0.013322744320213723]}}, {"type": "Feature", "properties": {"norad_id": 37185, "name": "XM-5", "group": "intelsat", "lat": 0.014553969790148322, "lon": -58.08734620074651, "alt_km": 35793.29236026237, "timestamp": "2025-12-26T21:25:52.673965+00:00", "meta": {"OBJECT_NAME": "XM-5", "OBJECT_ID": "2010-053A", "EPOCH": "2025-12-26T06:45:38.542176", "MEAN_MOTION": 1.00272159, "ECCENTRICITY": 0.00020386, "INCLINATION": 0.0641, "RA_OF_ASC_NODE": 269.394, "ARG_OF_PERICENTER": 243.8981, "MEAN_ANOMALY": 287.9534, "EPHEMERIS_TYPE": 0, "CLASSIFICATION_TYPE": "U", "NORAD_CAT_ID": 37185, "ELEMENT_SET_NO": 999, "REV_AT_EPOCH": 5575, "BSTAR": 0, "MEAN_MOTION_DOT": -1e-08, "MEAN_MOTION_DDOT": 0}, "tle": {"line1": "1 37185U 10053A   25360.28169609 -.00000001  00000+0  00000+0 0  9990", "line2": "2 37185   0.0641 269.3940 0002038 243.8981 287.9534  1.00272159 55755"}}, "geometry": {"type": "Point", "coordinates": [-58.08734620074651, 0.014553969790148322]}}, {"type": "Feature", "properties": {"norad_id": 37238, "name": "INTELSAT 17 (IS-17)", "group": "intelsat", "lat": 0.03548806413552609, "lon": 123.06556455914563, "alt_km": 35798.388920943515, "timestamp": "2025-12-26T21:25:52.673978+00:00", "meta": {"OBJECT_NAME": "INTELSAT 17 (IS-17)", "OBJECT_ID": "2010-065B", "EPOCH": "2025-12-26T15:53:27.454848", "MEAN_MOTION": 1.00272011, "ECCENTRICITY": 0.00029351, "INCLINATION": 0.0297, "RA_OF_ASC_NODE": 74.8027, "ARG_OF_PERICENTER": 224.8642, "MEAN_ANOMALY": 100.0752, "EPHEMERIS_TYPE": 0, "CLASSIFICATION_TYPE": "U", "NORAD_CAT_ID": 37238, "ELEMENT_SET_NO": 999, "REV_AT_EPOCH": 5151, "BSTAR": 0, "MEAN_MOTION_DOT": 0, "MEAN_MOTION_DDOT": 0}, "tle": {"line1": "1 37238U 10065B   25360.66212332  .00000000  00000+0  00000+0 0  9994", "line2": "2 37238   0.0297  74.8027 0002935 224.8642 100.0752  1.00272011 51519"}}, "geometry": {"type": "Point", "coordinates": [123.06556455914563, 0.03548806413552609]}}, {"type": "Feature", "properties": {"norad_id": 37392, "name": "INTELSAT 28 (IS-28)", "group": "intelsat", "lat": -1.1662602256670878, "lon": 25.437512306600865, "alt_km": 35792.48975403337, "timestamp": "2025-12-26T21:25:52.673990+00:00", "meta": {"OBJECT_NAME": "INTELSAT 28 (IS-28)", "OBJECT_ID": "2011-016A", "EPOCH": "2025-12-26T00:24:38.640960", "MEAN_MOTION": 1.00271568, "ECCENTRICITY": 0.00037974, "INCLINATION": 1.3569, "RA_OF_ASC_NODE": 84.9113, "ARG_OF_PERICENTER": 188.0675, "MEAN_ANOMALY": 156.2464, "EPHEMERIS_TYPE": 0, "CLASSIFICATION_TYPE": "U", "NORAD_CAT_ID": 37392, "ELEMENT_SET_NO": 999, "REV_AT_EPOCH": 5154, "BSTAR": 0, "MEAN_MOTION_DOT": -2.03e-06, "MEAN_MOTION_DDOT": 0}, "tle": {"line1": "1 37392U 11016A   25360.01711390 -.00000203  00000+0  00000+0 0  9995", "line2": "2 37392   1.3569  84.9113 0003797 188.0675 156.2464  1.00271568 51540"}}, "geometry": {"type": "Point", "coordinates": [25.437512306600865, -1.1662602256670878]}}]}